#dP2024  5  4  0  0  0.00000000      96 __u+U IGS20 EXT  IAC
## 2312 518400.00000000   900.00000000 60434 0.0000000000000
+  119   C06C07C08C09C10C11C12C13C14C16C19C20C21C22C23C24C25
+        C26C27C28C29C30C32C33C34C35C36C37C38C39C40C41C42C43
+        C44C45C46E02E03E04E05E07E08E09E10E11E12E13E14E15E18
+        E19E21E24E25E26E27E30E31E33E34E36G02G03G04G05G06G07
+        G08G09G10G11G12G13G14G15G16G17G18G19G20G21G22G23G24
+        G25G26G27G28G29G30G31G32J02J03J04R01R02R03R04R05R07
+        R08R09R11R12R13R14R15R16R17R18R19R20R21R22R24R25R26
++        11 10  8 11  9  8  7  7  9 11  7  8  7  8  8  9  7
++         8  7  7  9  9  9  9  8  8  9 10 10 10  9  7  7  7
++         7  7 10  8  7  6  7  8  8  7  8  7  7  7  8  7  7
++         7  6  8  9  7  8  8  7  6  6  7  8  6  7  8  5  8
++         7  7  7  6  7  6  9  6  7  7  7  7  6  7  7  6  8
++         6  7  7  7  8  8  7  6 12  8  0  7  7  8  8  8  8
++         9  7  8  9  7  8  6  9  7  6  7  9  6  8  6  8  7
%c M  cc GPS ccc cccc cccc cccc cccc ccccc ccccc ccccc ccccc
%c cc cc ccc ccc cccc cccc cccc cccc ccccc ccccc ccccc ccccc
%f  0.0000000  0.000000000  0.00000000000  0.000000000000000
%f  0.0000000  0.000000000  0.00000000000  0.000000000000000
%i    0    0    0    0      0      0      0      0         0
%i    0    0    0    0      0      0      0      0         0
/* IAC                                ULTRA-RAPID PREDICTION
/* S/V CLOCKS ARE ALIGNED TO GNSS TIME                      
/* G:C1WC2W R:C1PC2P E:C1XC5X C:C2IC6I J:C1CC2S             
/* PCV:IGS20_2290 OL/AL:FES2004  NONE     YN ORB:CoN CLK:CoN
*  2024 05 04 11 30  0.00000000
PC06 -17352.257330  34697.668117 -16767.170857    395.493981
PC07  -4083.856268  36110.560973 -21120.902756   -760.990290
PC08  -8656.977598  18694.460398  36765.390939    -83.092699
PC09 -13101.513366  33466.054761 -22073.902645   -853.053497
PC10   3395.888741  38889.818303 -14870.407943     60.703626
PC11  17004.448035 -19588.426878  10363.150570    545.123843
PC12  16882.440818  -1143.006153  22222.160279   -241.153862
PC13   -438.135536  21905.992606  36194.419567    434.167568
PC14  11905.640274 -10198.652134 -23072.689592    799.808264
PC16 -21485.407906  34202.243558 -12405.925799   -499.413735
PC19  -4272.558883  17945.145282  20955.525822   -913.106316
PC20 -16853.771528   2323.955183  22141.379949   -428.007353
PC21  20361.868199  16249.339949  -9939.661901   -965.353806
PC22  11528.168311  24226.523242   7610.115556    -16.479789
PC23  -4801.032644 -15800.970090  22500.891926   -777.507758
PC24  27365.780144  -4957.515597   2424.032043    929.414245
PC25  15394.177199 -15066.594518  17741.678748    391.183735
PC26  23139.518275   6941.693171 -14012.988915   -286.438694
PC27 -13641.771873  -8657.484904 -22775.646369    308.093321
PC28  -2368.903993 -22642.826903 -16137.360509    235.967804
PC29 -11770.300304  25192.259225  -2383.070976    276.857137
PC30 -18130.721889  10861.932117 -18245.101234    -69.450125
PC32 -20517.101868 -16157.120265   9887.624381   -615.554862
PC33   4192.868551 -17963.964783 -20941.467760   -967.238249
PC34  18060.605144 -12451.307666  17219.822801    426.303761
PC35   3031.476488  22758.089241  15871.319153    371.434104
PC36 -15832.205798  14669.231375 -17663.216284     71.307433
PC37 -22786.963117  -7605.051237  14194.257524   -969.673002
PC38 -16649.592439  18799.873384  33891.760233    153.015107
PC39 -22738.228533  34831.295638  -7549.776943     -8.220511
PC40  -7837.190872  33026.864689 -24837.949598    -68.525017
PC41 -11063.401492 -24222.447720  -8328.186842   -939.632844
PC42  17674.105635   -706.189912 -21528.425486   -442.660179
PC43  12313.398978 -24815.634096   3251.008216     70.406881
PC44  13985.359600   8392.190658  22626.422380    463.129896
PC45   4658.841291  15707.225599 -22592.472606    -83.712029
PC46 -27182.110541   5355.430424  -3186.038769   -145.360549
PE02   7164.557683  19898.613727 -20721.789823    124.669214
PE03   2155.861287  29494.253660  -1049.388611   -111.511095
PE04 -13623.253866 -19015.666582  18155.699401   -388.922915
PE05 -10330.026010  22447.716724  16301.170823   4744.556769
PE07  16878.636380  -1815.042191 -24236.921840   -118.197277
PE08  13172.233155  19744.128739 -17670.990235   -265.288514
PE09 -16755.704422   1652.482807  24352.798790   -430.565057
PE10 -22480.243570   -260.349609 -19265.789404   -622.157810
PE11 -26210.512397   8264.728331 -11034.510744   2929.744044
PE12 -15918.907861  -7976.112807 -23659.211228  -1023.177708
PE13  26074.282051  -7850.116065  11588.030104    -21.381153
PE14 -16696.253940  10247.423145 -19974.472223     25.769056
PE15  15380.536066   8347.812662  23871.562695   -100.879395
PE18   8603.511679 -26577.841314  10387.024435     72.254576
PE19   -649.474439 -29580.716957   -910.410065   -125.354136
PE21  12950.234967 -11813.538496  23847.008155   -592.686295
PE24 -26384.089438  -3757.337030 -12881.685459   -743.482590
PE25 -13345.361827  11543.273344 -23764.451551      4.099665
PE26  20950.168012 -19407.046217  -7776.184150    444.532663
PE27  26305.691268   3490.717274  13118.440890   -340.755099
PE30  23853.976436  16702.849861  -5347.913839   -265.212070
PE31 -23983.568416 -16547.700143   5214.174631    -22.571429
PE33   4692.067011 -19550.691793 -21725.546550     11.254458
PE34  -4123.843232  19403.137900  21961.241836   -109.323334
PE36 -21362.730233  19178.661913   7239.522144   -222.367576
PG02  11254.682097 -20194.699564 -12337.148293   -442.200351
PG03  -1343.682331 -16240.656739 -21152.774898    345.597595
PG04   1766.005320 -26091.370806  -4201.103089    353.485287
PG05 -14172.001390   9149.102890  20360.906073   -171.478972
PG06 -21432.526936   2003.023747 -15571.375283    290.369356
PG07  -8155.557490 -13405.750754  21928.720681   -121.519271
PG08   7207.130693 -21434.439422  13469.113419    159.562906
PG09  -8079.705250 -23978.136037   7907.176713    183.840301
PG10  24433.632044  10761.946058  -1221.501793    -17.658107
PG11 -23638.061694  11339.718143  -4061.393799   -653.603824
PG12  -1644.385449  16118.294608 -21339.865140   -502.357866
PG13 -13164.113230  14127.857435  17926.208912    647.874301
PG14 -22979.367248 -13380.747387   2133.078227    392.371763
PG15  -4502.007987  22402.406936  12877.286363    155.361030
PG16  18255.667348  -4328.417895  18639.339091   -300.439828
PG17 -12584.741882 -14400.588775 -17944.394322    708.762441
PG18   8247.325826  12429.854854  21986.282404   -605.270488
PG19 -14818.584573  -4886.453713 -21718.612675    477.283137
PG20 -22496.543076   3774.931472  13542.663325    377.818633
PG21  15015.973073 -19591.007538  -7858.956735    123.605881
PG22 -23858.744368  -9550.957920  -5648.873008     -8.827570
PG23  18851.459442  15848.929776  10220.372555    216.962904
PG24 -11782.009286  20881.176574 -11385.300163   -466.322984
PG25   9302.439551  18040.496435 -17603.240346    495.087343
PG26  25123.405387   2775.738655   8584.901723    157.776095
PG27  13044.516175 -10910.790625  19999.281415    -22.271403
PG28  20284.019465    -72.259155 -17156.838724   -229.679666
PG29   4086.792743  25504.694734   5869.004493   -599.682053
PG30 -17693.833395  -5173.443671  19355.229937   -395.596643
PG31  23959.140204  -8181.601416  -8881.377452   -227.920292
PG32  14394.749656  11314.275068 -19099.812031   -618.421036
PJ02 -24113.212553  17823.509791 -24948.899254     -0.094132
PJ03 -28395.065452  31243.472512   3669.231074      0.104586
PJ04 -26011.471497  26240.678813  26176.726394     50.363800
PR01  15071.071690  17421.698766 -10929.991182     84.355030
PR02  12591.655187   2539.340848 -21998.734203    -22.876614
PR03   3575.322454 -14582.916364 -20552.328547     99.494787
PR04  -7056.851385 -23176.785276  -7932.735389    234.891418
PR05 -13865.757711 -19436.582355   8970.658820    130.991197
PR07  -3053.470459  15322.703341  20224.124068     81.649566
PR08   7289.484326  23197.817068   7821.063786    -75.289895
PR09 -25208.267162   1139.513899  -4003.331395    184.659833
PR11   1518.867362  10985.967063 -22959.016967     25.885209
PR12  20383.618880   7607.987975 -13300.036609     39.738118
PR13  25459.019650    515.752226   1497.380606    -47.048759
PR14  15339.732411  -8257.808473  18635.145752     26.451820
PR15  -3229.205930 -11146.866356  22735.185629     80.119419
PR16 -20256.633181  -7532.527855  13589.804288     25.305618
PR17  14849.340783 -20716.075483   1419.859319     83.760919
PR18   6088.093227 -20128.510007 -14389.265941    140.380403
PR19  -4398.198744 -11000.710754 -22595.349723   -275.384846
PR20 -16146.790863   8256.517611 -17956.848225   -112.272999
PR21 -15035.605753  20534.640494  -1528.296835    -98.051876
PR22  -5600.344745  19736.040051  15191.634799    113.888474
PR24  16201.160052  -9194.182190  17442.655375    -54.453284
PR25 -15578.663773  20153.880093  -1154.631884    -33.494662
PR26   6753.661742  22921.332971   8913.822149    -21.496770
EOF
